$$SOE
2459580.500000000, A.D. 2022-Jan-01 00:00:00.0000, 8.727539021615312E+07, 4.812459482896753E+08, -3.649844008244187E+06,
2459587.500000000, A.D. 2022-Jan-08 00:00:00.0000, 7.804319689322363E+07, 4.844876102629510E+08, -3.256216932328790E+06,
2459594.500000000, A.D. 2022-Jan-15 00:00:00.0000, 6.877889538312571E+07, 4.875302503561676E+08, -2.861251201946676E+06,
2459601.500000000, A.D. 2022-Jan-22 00:00:00.0000, 5.948657343191841E+07, 4.903745908035959E+08, -2.465121022611737E+06,
2459608.500000000, A.D. 2022-Jan-29 00:00:00.0000, 5.017025066948891E+07, 4.930214194616464E+08, -2.067997557524890E+06,
2459615.500000000, A.D. 2022-Feb-05 00:00:00.0000, 4.083387685420319E+07, 4.954715861459442E+08, -1.670048799497366E+06,
2459622.500000000, A.D. 2022-Feb-12 00:00:00.0000, 3.148133236274479E+07, 4.977259980155907E+08, -1.271439730888903E+06,
2459629.500000000, A.D. 2022-Feb-19 00:00:00.0000, 2.211642959507729E+07, 4.997856163729041E+08, -8.723324564673901E+05,
2459636.500000000, A.D. 2022-Feb-26 00:00:00.0000, 1.274291397763578E+07, 5.016514541523572E+08, -4.728862479439974E+05,
2459643.500000000, A.D. 2022-Mar-05 00:00:00.0000, 3.364464717826108E+06, 5.033245734785269E+08, -7.325756514853239E+04,
2459650.500000000, A.D. 2022-Mar-12 00:00:00.0000, -6.015304474287864E+06, 5.048060832245959E+08, 3.263999204266667E+05,
2459657.500000000, A.D. 2022-Mar-19 00:00:00.0000, -1.539284463154454E+07, 5.060971365969217E+08, 7.259352954246998E+05,
2459664.500000000, A.D. 2022-Mar-26 00:00:00.0000, -2.476467072518628E+07, 5.071989287372463E+08, 1.125200365156174E+06,
2459671.500000000, A.D. 2022-Apr-02 00:00:00.0000, -3.412736074726419E+07, 5.081126942842154E+08, 1.524049594024450E+06,
2459678.500000000, A.D. 2022-Apr-09 00:00:00.0000, -4.347755441241501E+07, 5.088397048965776E+08, 1.922340001262367E+06,
2459685.500000000, A.D. 2022-Apr-16 00:00:00.0000, -5.281195112621175E+07, 5.093812673900320E+08, 2.319931032662719E+06,
2459692.500000000, A.D. 2022-Apr-23 00:00:00.0000, -6.212730849253512E+07, 5.097387235703812E+08, 2.716684613242835E+06,
2459699.500000000, A.D. 2022-Apr-30 00:00:00.0000, -7.142044323257472E+07, 5.099134495146048E+08, 3.112465368911773E+06,
2459706.500000000, A.D. 2022-May-07 00:00:00.0000, -8.068823145647119E+07, 5.099068523218786E+08, 3.507140575171441E+06,
2459713.500000000, A.D. 2022-May-14 00:00:00.0000, -8.992760690247443E+07, 5.097203673711993E+08, 3.900579953815848E+06,
2459720.500000000, A.D. 2022-May-21 00:00:00.0000, -9.913555917700799E+07, 5.093554568430478E+08, 4.292655565919071E+06,
2459727.500000000, A.D. 2022-May-28 00:00:00.0000, -1.083091324764910E+08, 5.088136085434489E+08, 4.683241766787052E+06,
2459734.500000000, A.D. 2022-Jun-04 00:00:00.0000, -1.174454245161870E+08, 5.080963347147467E+08, 5.072215172044873E+06,
2459741.500000000, A.D. 2022-Jun-11 00:00:00.0000, -1.265415855236764E+08, 5.072051708328133E+08, 5.459454621919513E+06,
2459748.500000000, A.D. 2022-Jun-18 00:00:00.0000, -1.355948172603089E+08, 5.061416744017168E+08, 5.844841141403645E+06,
2459755.500000000, A.D. 2022-Jun-25 00:00:00.0000, -1.446023720430618E+08, 5.049074237105018E+08, 6.228257891051859E+06,
2459762.500000000, A.D. 2022-Jul-02 00:00:00.0000, -1.535615516344995E+08, 5.035040164842057E+08, 6.609590090926498E+06,
2459769.500000000, A.D. 2022-Jul-09 00:00:00.0000, -1.624697056122913E+08, 5.019330686040176E+08, 6.988724896563739E+06,
2459776.500000000, A.D. 2022-Jul-16 00:00:00.0000, -1.713242292753059E+08, 5.001962139777789E+08, 7.365551320717692E+06,
2459783.500000000, A.D. 2022-Jul-23 00:00:00.0000, -1.801225632859245E+08, 4.982951056375123E+08, 7.739960409047782E+06,
2459790.500000000, A.D. 2022-Jul-30 00:00:00.0000, -1.888621949646070E+08, 4.962314147076108E+08, 8.111845388207287E+06,
2459797.500000000, A.D. 2022-Aug-06 00:00:00.0000, -1.975406576392354E+08, 4.940068278884850E+08, 8.481101509586990E+06,
2459804.500000000, A.D. 2022-Aug-13 00:00:00.0000, -2.061555288742069E+08, 4.916230462091259E+08, 8.847625889574021E+06,
2459811.500000000, A.D. 2022-Aug-20 00:00:00.0000, -2.147044291487406E+08, 4.890817845441117E+08, 9.211317449316382E+06,
2459818.500000000, A.D. 2022-Aug-27 00:00:00.0000, -2.231850209159989E+08, 4.863847711659067E+08, 9.572076888611764E+06,
2459825.500000000, A.D. 2022-Sep-03 00:00:00.0000, -2.315950077953510E+08, 4.835337472188907E+08, 9.929806662377805E+06,
2459832.500000000, A.D. 2022-Sep-10 00:00:00.0000, -2.399321338085000E+08, 4.805304661362354E+08, 1.028441095359024E+07,
2459839.500000000, A.D. 2022-Sep-17 00:00:00.0000, -2.481941826313364E+08, 4.773766929957178E+08, 1.063579563996270E+07,
2459846.500000000, A.D. 2022-Sep-24 00:00:00.0000, -2.563789768024419E+08, 4.740742037622170E+08, 1.098386824469984E+07,
2459853.500000000, A.D. 2022-Oct-01 00:00:00.0000, -2.644843766493011E+08, 4.706247843937561E+08, 1.132853784740782E+07,
2459860.500000000, A.D. 2022-Oct-08 00:00:00.0000, -2.725082785255889E+08, 4.670302303324456E+08, 1.166971496029827E+07,
2459867.500000000, A.D. 2022-Oct-15 00:00:00.0000, -2.804486132919392E+08, 4.632923475790124E+08, 1.200731155289346E+07,
2459874.500000000, A.D. 2022-Oct-22 00:00:00.0000, -2.883033472216349E+08, 4.594129536666794E+08, 1.234124128740269E+07,
2459881.500000000, A.D. 2022-Oct-29 00:00:00.0000, -2.960704828322144E+08, 4.553938759388597E+08, 1.267141952345690E+07,
2459888.500000000, A.D. 2022-Nov-05 00:00:00.0000, -3.037480575439564E+08, 4.512369498690697E+08, 1.299776312346250E+07,
2459895.500000000, A.D. 2022-Nov-12 00:00:00.0000, -3.113341421311587E+08, 4.469440186895062E+08, 1.332019034209356E+07,
2459902.500000000, A.D. 2022-Nov-19 00:00:00.0000, -3.188268396856396E+08, 4.425169333735352E+08, 1.363862078770685E+07,
2459909.500000000, A.D. 2022-Nov-26 00:00:00.0000, -3.262242848300486E+08, 4.379575525734624E+08, 1.395297539902005E+07,
2459916.500000000, A.D. 2022-Dec-03 00:00:00.0000, -3.335246430150009E+08, 4.332677425007115E+08, 1.426317642080718E+07,
2459923.500000000, A.D. 2022-Dec-10 00:00:00.0000, -3.407261098546486E+08, 4.284493767659664E+08, 1.456914737592432E+07,
2459930.500000000, A.D. 2022-Dec-17 00:00:00.0000, -3.478269104760923E+08, 4.235043361532760E+08, 1.487081302935734E+07,
2459937.500000000, A.D. 2022-Dec-24 00:00:00.0000, -3.548252987733066E+08, 4.184345082613540E+08, 1.516809932890710E+07,
2459944.500000000, A.D. 2022-Dec-31 00:00:00.0000, -3.617195562079687E+08, 4.132417871186424E+08, 1.546093329855144E+07,
2459951.500000000, A.D. 2023-Jan-07 00:00:00.0000, -3.685079900346425E+08, 4.079280737336314E+08, 1.574924295194027E+07,
2459958.500000000, A.D. 2023-Jan-14 00:00:00.0000, -3.751889329178184E+08, 4.024952780768857E+08, 1.603295744709265E+07,
2459965.500000000, A.D. 2023-Jan-21 00:00:00.0000, -3.817607445852528E+08, 3.969453193221953E+08, 1.631200728220385E+07,
2459972.500000000, A.D. 2023-Jan-28 00:00:00.0000, -3.882218118482178E+08, 3.912801241499028E+08, 1.658632418024954E+07,
2459979.500000000, A.D. 2023-Feb-04 00:00:00.0000, -3.945705471972189E+08, 3.855016261382896E+08, 1.685584092904207E+07,
2459986.500000000, A.D. 2023-Feb-11 00:00:00.0000, -4.008053877691069E+08, 3.796117660490431E+08, 1.712049132562962E+07,
2459993.500000000, A.D. 2023-Feb-18 00:00:00.0000, -4.069247947487486E+08, 3.736124921833643E+08, 1.738021016364157E+07,
2460000.500000000, A.D. 2023-Feb-25 00:00:00.0000, -4.129272529422244E+08, 3.675057606462497E+08, 1.763493322639112E+07,
2460007.500000000, A.D. 2023-Mar-04 00:00:00.0000, -4.188112704193913E+08, 3.612935355371533E+08, 1.788459727806458E+07,
2460014.500000000, A.D. 2023-Mar-11 00:00:00.0000, -4.245753781973828E+08, 3.549777890671893E+08, 1.812914005062211E+07,
2460021.500000000, A.D. 2023-Mar-18 00:00:00.0000, -4.302181299181819E+08, 3.485605015533062E+08, 1.836850021827751E+07,
2460028.500000000, A.D. 2023-Mar-25 00:00:00.0000, -4.357381013170525E+08, 3.420436612422481E+08, 1.860261733729985E+07,
2460035.500000000, A.D. 2023-Apr-01 00:00:00.0000, -4.411338890572912E+08, 3.354292643577204E+08, 1.883143174458806E+07,
2460042.500000000, A.D. 2023-Apr-08 00:00:00.0000, -4.464041095468139E+08, 3.287193165957466E+08, 1.905488457177828E+07,
2460049.500000000, A.D. 2023-Apr-15 00:00:00.0000, -4.515474000739447E+08, 3.219158349625713E+08, 1.927291799899404E+07,
2460056.500000000, A.D. 2023-Apr-22 00:00:00.0000, -4.565624204523911E+08, 3.150208469037842E+08, 1.948547533298542E+07,
2460063.500000000, A.D. 2023-Apr-29 00:00:00.0000, -4.614478524384053E+08, 3.080363889764702E+08, 1.969250084296307E+07,
2460070.500000000, A.D. 2023-May-06 00:00:00.0000, -4.662023986798952E+08, 3.009645068438964E+08, 1.989393966109677E+07,
2460077.500000000, A.D. 2023-May-13 00:00:00.0000, -4.708247821747552E+08, 2.938072556984775E+08, 2.008973776411739E+07,
2460084.500000000, A.D. 2023-May-20 00:00:00.0000, -4.753137460046801E+08, 2.865667006214355E+08, 2.027984197424397E+07,
2460091.500000000, A.D. 2023-May-27 00:00:00.0000, -4.796680531515776E+08, 2.792449168493229E+08, 2.046419995907824E+07,
2460098.500000000, A.D. 2023-Jun-03 00:00:00.0000, -4.838864863397557E+08, 2.718439899733716E+08, 2.064276022706354E+07,
2460105.500000000, A.D. 2023-Jun-10 00:00:00.0000, -4.879678478806617E+08, 2.643660160581462E+08, 2.081547211493146E+07,
2460112.500000000, A.D. 2023-Jun-17 00:00:00.0000, -4.919109594313506E+08, 2.568131016196373E+08, 2.098228575378899E+07,
2460119.500000000, A.D. 2023-Jun-24 00:00:00.0000, -4.957146613466105E+08, 2.491873635184129E+08, 2.114315198879084E+07,
2460126.500000000, A.D. 2023-Jul-01 00:00:00.0000, -4.993778113714281E+08, 2.414909295956182E+08, 2.129802229663715E+07,
2460133.500000000, A.D. 2023-Jul-08 00:00:00.0000, -5.028992843480613E+08, 2.337259408734199E+08, 2.144684892143960E+07,
2460140.500000000, A.D. 2023-Jul-15 00:00:00.0000, -5.062779742152868E+08, 2.258945524902097E+08, 2.158958511467479E+07,
2460147.500000000, A.D. 2023-Jul-22 00:00:00.0000, -5.095127947781864E+08, 2.179989323365166E+08, 2.172618507164471E+07,
$$EOE